[{"sat":{"ORDINAL":"1","COMMENT":"GENERATED VIA SPACETRACK.ORG API","ORIGINATOR":"JSPOC","NORAD_CAT_ID":"7530","OBJECT_NAME":"OSCAR 7","OBJECT_TYPE":"PAYLOAD","CLASSIFICATION_TYPE":"U","INTLDES":"74089B","EPOCH":"2018-10-12 11:53:15","EPOCH_MICROSECONDS":"912384","MEAN_MOTION":"12.53634793","ECCENTRICITY":"0.0012409","INCLINATION":"101.7033","RA_OF_ASC_NODE":"251.1197","ARG_OF_PERICENTER":"107.2908","MEAN_ANOMALY":"6.7641","EPHEMERIS_TYPE":"0","ELEMENT_SET_NO":"999","REV_AT_EPOCH":"929","BSTAR":"6.091e-06","MEAN_MOTION_DOT":"-4.4e-07","MEAN_MOTION_DDOT":"0","FILE":"2344048","TLE_LINE0":"0 OSCAR 7","TLE_LINE1":"1  7530U 74089B   18285.49532306 -.00000044  00000-0  60910-5 0  9999","TLE_LINE2":"2  7530 101.7033 251.1197 0012409 107.2908   6.7641 12.53634793  9298","OBJECT_ID":"1974-089B","OBJECT_NUMBER":"7530","SEMIMAJOR_AXIS":"7827.465","PERIOD":"114.865","APOGEE":"1459.043","PERIGEE":"1439.617"},"latlng":{"lat":-11.591926335708942,"lng":103.29521843177628}},{"sat":{"ORDINAL":"1","COMMENT":"GENERATED VIA SPACETRACK.ORG API","ORIGINATOR":"JSPOC","NORAD_CAT_ID":"7530","OBJECT_NAME":"OSCAR 7","OBJECT_TYPE":"PAYLOAD","CLASSIFICATION_TYPE":"U","INTLDES":"74089B","EPOCH":"2018-10-12 11:53:15","EPOCH_MICROSECONDS":"912384","MEAN_MOTION":"12.53634793","ECCENTRICITY":"0.0012409","INCLINATION":"101.7033","RA_OF_ASC_NODE":"251.1197","ARG_OF_PERICENTER":"107.2908","MEAN_ANOMALY":"6.7641","EPHEMERIS_TYPE":"0","ELEMENT_SET_NO":"999","REV_AT_EPOCH":"929","BSTAR":"6.091e-06","MEAN_MOTION_DOT":"-4.4e-07","MEAN_MOTION_DDOT":"0","FILE":"2344048","TLE_LINE0":"0 OSCAR 7","TLE_LINE1":"1  7530U 74089B   18285.49532306 -.00000044  00000-0  60910-5 0  9999","TLE_LINE2":"2  7530 101.7033 251.1197 0012409 107.2908   6.7641 12.53634793  9298","OBJECT_ID":"1974-089B","OBJECT_NUMBER":"7530","SEMIMAJOR_AXIS":"7827.465","PERIOD":"114.865","APOGEE":"1459.043","PERIGEE":"1439.617"},"latlng":{"lat":73.53618776823417,"lng":167.70194605490514}},{"sat":{"ORDINAL":"1","COMMENT":"GENERATED VIA SPACETRACK.ORG API","ORIGINATOR":"JSPOC","NORAD_CAT_ID":"7530","OBJECT_NAME":"OSCAR 7","OBJECT_TYPE":"PAYLOAD","CLASSIFICATION_TYPE":"U","INTLDES":"74089B","EPOCH":"2018-10-12 11:53:15","EPOCH_MICROSECONDS":"912384","MEAN_MOTION":"12.53634793","ECCENTRICITY":"0.0012409","INCLINATION":"101.7033","RA_OF_ASC_NODE":"251.1197","ARG_OF_PERICENTER":"107.2908","MEAN_ANOMALY":"6.7641","EPHEMERIS_TYPE":"0","ELEMENT_SET_NO":"999","REV_AT_EPOCH":"929","BSTAR":"6.091e-06","MEAN_MOTION_DOT":"-4.4e-07","MEAN_MOTION_DDOT":"0","FILE":"2344048","TLE_LINE0":"0 OSCAR 7","TLE_LINE1":"1  7530U 74089B   18285.49532306 -.00000044  00000-0  60910-5 0  9999","TLE_LINE2":"2  7530 101.7033 251.1197 0012409 107.2908   6.7641 12.53634793  9298","OBJECT_ID":"1974-089B","OBJECT_NUMBER":"7530","SEMIMAJOR_AXIS":"7827.465","PERIOD":"114.865","APOGEE":"1459.043","PERIGEE":"1439.617"},"latlng":{"lat":40.75975660807433,"lng":135.5322668531309}},{"sat":{"ORDINAL":"1","COMMENT":"GENERATED VIA SPACETRACK.ORG API","ORIGINATOR":"JSPOC","NORAD_CAT_ID":"7530","OBJECT_NAME":"OSCAR 7","OBJECT_TYPE":"PAYLOAD","CLASSIFICATION_TYPE":"U","INTLDES":"74089B","EPOCH":"2018-10-12 11:53:15","EPOCH_MICROSECONDS":"912384","MEAN_MOTION":"12.53634793","ECCENTRICITY":"0.0012409","INCLINATION":"101.7033","RA_OF_ASC_NODE":"251.1197","ARG_OF_PERICENTER":"107.2908","MEAN_ANOMALY":"6.7641","EPHEMERIS_TYPE":"0","ELEMENT_SET_NO":"999","REV_AT_EPOCH":"929","BSTAR":"6.091e-06","MEAN_MOTION_DOT":"-4.4e-07","MEAN_MOTION_DDOT":"0","FILE":"2344048","TLE_LINE0":"0 OSCAR 7","TLE_LINE1":"1  7530U 74089B   18285.49532306 -.00000044  00000-0  60910-5 0  9999","TLE_LINE2":"2  7530 101.7033 251.1197 0012409 107.2908   6.7641 12.53634793  9298","OBJECT_ID":"1974-089B","OBJECT_NUMBER":"7530","SEMIMAJOR_AXIS":"7827.465","PERIOD":"114.865","APOGEE":"1459.043","PERIGEE":"1439.617"},"latlng":{"lat":29.30155939200957,"lng":-2.123321815164104}},{"sat":{"ORDINAL":"1","COMMENT":"GENERATED VIA SPACETRACK.ORG API","ORIGINATOR":"JSPOC","NORAD_CAT_ID":"7530","OBJECT_NAME":"OSCAR 7","OBJECT_TYPE":"PAYLOAD","CLASSIFICATION_TYPE":"U","INTLDES":"74089B","EPOCH":"2018-10-12 11:53:15","EPOCH_MICROSECONDS":"912384","MEAN_MOTION":"12.53634793","ECCENTRICITY":"0.0012409","INCLINATION":"101.7033","RA_OF_ASC_NODE":"251.1197","ARG_OF_PERICENTER":"107.2908","MEAN_ANOMALY":"6.7641","EPHEMERIS_TYPE":"0","ELEMENT_SET_NO":"999","REV_AT_EPOCH":"929","BSTAR":"6.091e-06","MEAN_MOTION_DOT":"-4.4e-07","MEAN_MOTION_DDOT":"0","FILE":"2344048","TLE_LINE0":"0 OSCAR 7","TLE_LINE1":"1  7530U 74089B   18285.49532306 -.00000044  00000-0  60910-5 0  9999","TLE_LINE2":"2  7530 101.7033 251.1197 0012409 107.2908   6.7641 12.53634793  9298","OBJECT_ID":"1974-089B","OBJECT_NUMBER":"7530","SEMIMAJOR_AXIS":"7827.465","PERIOD":"114.865","APOGEE":"1459.043","PERIGEE":"1439.617"},"latlng":{"lat":-17.523464179499204,"lng":15.929280115206325}},{"sat":{"ORDINAL":"1","COMMENT":"GENERATED VIA SPACETRACK.ORG API","ORIGINATOR":"JSPOC","NORAD_CAT_ID":"7530","OBJECT_NAME":"OSCAR 7","OBJECT_TYPE":"PAYLOAD","CLASSIFICATION_TYPE":"U","INTLDES":"74089B","EPOCH":"2018-10-12 11:53:15","EPOCH_MICROSECONDS":"912384","MEAN_MOTION":"12.53634793","ECCENTRICITY":"0.0012409","INCLINATION":"101.7033","RA_OF_ASC_NODE":"251.1197","ARG_OF_PERICENTER":"107.2908","MEAN_ANOMALY":"6.7641","EPHEMERIS_TYPE":"0","ELEMENT_SET_NO":"999","REV_AT_EPOCH":"929","BSTAR":"6.091e-06","MEAN_MOTION_DOT":"-4.4e-07","MEAN_MOTION_DDOT":"0","FILE":"2344048","TLE_LINE0":"0 OSCAR 7","TLE_LINE1":"1  7530U 74089B   18285.49532306 -.00000044  00000-0  60910-5 0  9999","TLE_LINE2":"2  7530 101.7033 251.1197 0012409 107.2908   6.7641 12.53634793  9298","OBJECT_ID":"1974-089B","OBJECT_NUMBER":"7530","SEMIMAJOR_AXIS":"7827.465","PERIOD":"114.865","APOGEE":"1459.043","PERIGEE":"1439.617"},"latlng":{"lat":-39.72760158281943,"lng":53.631317989640195}},{"sat":{"ORDINAL":"1","COMMENT":"GENERATED VIA SPACETRACK.ORG API","ORIGINATOR":"JSPOC","NORAD_CAT_ID":"7530","OBJECT_NAME":"OSCAR 7","OBJECT_TYPE":"PAYLOAD","CLASSIFICATION_TYPE":"U","INTLDES":"74089B","EPOCH":"2018-10-12 11:53:15","EPOCH_MICROSECONDS":"912384","MEAN_MOTION":"12.53634793","ECCENTRICITY":"0.0012409","INCLINATION":"101.7033","RA_OF_ASC_NODE":"251.1197","ARG_OF_PERICENTER":"107.2908","MEAN_ANOMALY":"6.7641","EPHEMERIS_TYPE":"0","ELEMENT_SET_NO":"999","REV_AT_EPOCH":"929","BSTAR":"6.091e-06","MEAN_MOTION_DOT":"-4.4e-07","MEAN_MOTION_DDOT":"0","FILE":"2344048","TLE_LINE0":"0 OSCAR 7","TLE_LINE1":"1  7530U 74089B   18285.49532306 -.00000044  00000-0  60910-5 0  9999","TLE_LINE2":"2  7530 101.7033 251.1197 0012409 107.2908   6.7641 12.53634793  9298","OBJECT_ID":"1974-089B","OBJECT_NUMBER":"7530","SEMIMAJOR_AXIS":"7827.465","PERIOD":"114.865","APOGEE":"1459.043","PERIGEE":"1439.617"},"latlng":{"lat":-72.42943545103887,"lng":163.18794662595215}},{"sat":{"ORDINAL":"1","COMMENT":"GENERATED VIA SPACETRACK.ORG API","ORIGINATOR":"JSPOC","NORAD_CAT_ID":"7530","OBJECT_NAME":"OSCAR 7","OBJECT_TYPE":"PAYLOAD","CLASSIFICATION_TYPE":"U","INTLDES":"74089B","EPOCH":"2018-10-12 11:53:15","EPOCH_MICROSECONDS":"912384","MEAN_MOTION":"12.53634793","ECCENTRICITY":"0.0012409","INCLINATION":"101.7033","RA_OF_ASC_NODE":"251.1197","ARG_OF_PERICENTER":"107.2908","MEAN_ANOMALY":"6.7641","EPHEMERIS_TYPE":"0","ELEMENT_SET_NO":"999","REV_AT_EPOCH":"929","BSTAR":"6.091e-06","MEAN_MOTION_DOT":"-4.4e-07","MEAN_MOTION_DDOT":"0","FILE":"2344048","TLE_LINE0":"0 OSCAR 7","TLE_LINE1":"1  7530U 74089B   18285.49532306 -.00000044  00000-0  60910-5 0  9999","TLE_LINE2":"2  7530 101.7033 251.1197 0012409 107.2908   6.7641 12.53634793  9298","OBJECT_ID":"1974-089B","OBJECT_NUMBER":"7530","SEMIMAJOR_AXIS":"7827.465","PERIOD":"114.865","APOGEE":"1459.043","PERIGEE":"1439.617"},"latlng":{"lat":-80.89487345856828,"lng":-50.1836858090864}},{"sat":{"ORDINAL":"1","COMMENT":"GENERATED VIA SPACETRACK.ORG API","ORIGINATOR":"JSPOC","NORAD_CAT_ID":"7530","OBJECT_NAME":"OSCAR 7","OBJECT_TYPE":"PAYLOAD","CLASSIFICATION_TYPE":"U","INTLDES":"74089B","EPOCH":"2018-10-12 11:53:15","EPOCH_MICROSECONDS":"912384","MEAN_MOTION":"12.53634793","ECCENTRICITY":"0.0012409","INCLINATION":"101.7033","RA_OF_ASC_NODE":"251.1197","ARG_OF_PERICENTER":"107.2908","MEAN_ANOMALY":"6.7641","EPHEMERIS_TYPE":"0","ELEMENT_SET_NO":"999","REV_AT_EPOCH":"929","BSTAR":"6.091e-06","MEAN_MOTION_DOT":"-4.4e-07","MEAN_MOTION_DDOT":"0","FILE":"2344048","TLE_LINE0":"0 OSCAR 7","TLE_LINE1":"1  7530U 74089B   18285.49532306 -.00000044  00000-0  60910-5 0  9999","TLE_LINE2":"2  7530 101.7033 251.1197 0012409 107.2908   6.7641 12.53634793  9298","OBJECT_ID":"1974-089B","OBJECT_NUMBER":"7530","SEMIMAJOR_AXIS":"7827.465","PERIOD":"114.865","APOGEE":"1459.043","PERIGEE":"1439.617"},"latlng":{"lat":37.98611833914008,"lng":-104.01010929555457}},{"sat":{"ORDINAL":"1","COMMENT":"GENERATED VIA SPACETRACK.ORG API","ORIGINATOR":"JSPOC","NORAD_CAT_ID":"7530","OBJECT_NAME":"OSCAR 7","OBJECT_TYPE":"PAYLOAD","CLASSIFICATION_TYPE":"U","INTLDES":"74089B","EPOCH":"2018-10-12 11:53:15","EPOCH_MICROSECONDS":"912384","MEAN_MOTION":"12.53634793","ECCENTRICITY":"0.0012409","INCLINATION":"101.7033","RA_OF_ASC_NODE":"251.1197","ARG_OF_PERICENTER":"107.2908","MEAN_ANOMALY":"6.7641","EPHEMERIS_TYPE":"0","ELEMENT_SET_NO":"999","REV_AT_EPOCH":"929","BSTAR":"6.091e-06","MEAN_MOTION_DOT":"-4.4e-07","MEAN_MOTION_DDOT":"0","FILE":"2344048","TLE_LINE0":"0 OSCAR 7","TLE_LINE1":"1  7530U 74089B   18285.49532306 -.00000044  00000-0  60910-5 0  9999","TLE_LINE2":"2  7530 101.7033 251.1197 0012409 107.2908   6.7641 12.53634793  9298","OBJECT_ID":"1974-089B","OBJECT_NUMBER":"7530","SEMIMAJOR_AXIS":"7827.465","PERIOD":"114.865","APOGEE":"1459.043","PERIGEE":"1439.617"},"latlng":{"lat":-49.7171289810546,"lng":-158.53687947438587}}]